{"fetched_at":"2026-07-24T07:06:35.314Z","source":"https://celestrak.org/NORAD/elements/gp.php?NAME=ICEYE&FORMAT=JSON","constellation":"iceye","records":[{"OBJECT_NAME":"ICEYE-X53","OBJECT_ID":"2025-135BJ","EPOCH":"2026-07-23T19:48:26.137728","CLASSIFICATION_TYPE":"U","MEAN_MOTION":15.00931504,"ECCENTRICITY":0.0002315,"INCLINATION":97.7347,"RA_OF_ASC_NODE":321.4435,"ARG_OF_PERICENTER":163.0267,"MEAN_ANOMALY":197.1035,"EPHEMERIS_TYPE":0,"NORAD_CAT_ID":64584,"ELEMENT_SET_NO":999,"REV_AT_EPOCH":5957,"BSTAR":0.00030516,"MEAN_MOTION_DOT":0.00003828,"MEAN_MOTION_DDOT":0},{"OBJECT_NAME":"ICEYE-X65","OBJECT_ID":"2025-248H","EPOCH":"2026-07-23T07:43:24.405600","CLASSIFICATION_TYPE":"U","MEAN_MOTION":15.07967302,"ECCENTRICITY":0.0006217,"INCLINATION":45.4055,"RA_OF_ASC_NODE":304.1629,"ARG_OF_PERICENTER":239.4737,"MEAN_ANOMALY":120.5532,"EPHEMERIS_TYPE":0,"NORAD_CAT_ID":66300,"ELEMENT_SET_NO":999,"REV_AT_EPOCH":4097,"BSTAR":0.00020571,"MEAN_MOTION_DOT":0.00002964,"MEAN_MOTION_DDOT":0},{"OBJECT_NAME":"ICEYE-X66","OBJECT_ID":"2025-248J","EPOCH":"2026-07-23T07:30:22.601376","CLASSIFICATION_TYPE":"U","MEAN_MOTION":15.09219337,"ECCENTRICITY":0.0005834,"INCLINATION":45.4021,"RA_OF_ASC_NODE":303.2063,"ARG_OF_PERICENTER":235.4755,"MEAN_ANOMALY":124.5576,"EPHEMERIS_TYPE":0,"NORAD_CAT_ID":66301,"ELEMENT_SET_NO":999,"REV_AT_EPOCH":4096,"BSTAR":0.00020939,"MEAN_MOTION_DOT":0.00003133,"MEAN_MOTION_DDOT":0},{"OBJECT_NAME":"ICEYE-X67","OBJECT_ID":"2025-248K","EPOCH":"2026-07-23T16:02:39.535296","CLASSIFICATION_TYPE":"U","MEAN_MOTION":15.09203163,"ECCENTRICITY":0.0007355,"INCLINATION":45.4055,"RA_OF_ASC_NODE":300.9147,"ARG_OF_PERICENTER":238.2935,"MEAN_ANOMALY":121.723,"EPHEMERIS_TYPE":0,"NORAD_CAT_ID":66302,"ELEMENT_SET_NO":999,"REV_AT_EPOCH":4103,"BSTAR":0.00023312,"MEAN_MOTION_DOT":0.00003516,"MEAN_MOTION_DDOT":0},{"OBJECT_NAME":"ICEYE-X58","OBJECT_ID":"2025-276CP","EPOCH":"2026-07-23T15:43:01.191360","CLASSIFICATION_TYPE":"U","MEAN_MOTION":15.17340706,"ECCENTRICITY":0.0003021,"INCLINATION":97.4188,"RA_OF_ASC_NODE":277.3593,"ARG_OF_PERICENTER":179.2265,"MEAN_ANOMALY":180.8974,"EPHEMERIS_TYPE":0,"NORAD_CAT_ID":66751,"ELEMENT_SET_NO":999,"REV_AT_EPOCH":3594,"BSTAR":0.00013207,"MEAN_MOTION_DOT":0.00002569,"MEAN_MOTION_DDOT":0},{"OBJECT_NAME":"ICEYE-X59","OBJECT_ID":"2025-276CQ","EPOCH":"2026-07-23T14:43:17.409216","CLASSIFICATION_TYPE":"U","MEAN_MOTION":15.00808188,"ECCENTRICITY":0.0001508,"INCLINATION":97.4409,"RA_OF_ASC_NODE":274.3552,"ARG_OF_PERICENTER":125.4291,"MEAN_ANOMALY":234.7074,"EPHEMERIS_TYPE":0,"NORAD_CAT_ID":66752,"ELEMENT_SET_NO":999,"REV_AT_EPOCH":3573,"BSTAR":0.00034598,"MEAN_MOTION_DOT":0.00004338,"MEAN_MOTION_DDOT":0},{"OBJECT_NAME":"ICEYE-X60","OBJECT_ID":"2025-276CR","EPOCH":"2026-07-21T10:12:56.896128","CLASSIFICATION_TYPE":"U","MEAN_MOTION":15.10963354,"ECCENTRICITY":0.00021257,"INCLINATION":97.4208,"RA_OF_ASC_NODE":274.0787,"ARG_OF_PERICENTER":166.7579,"MEAN_ANOMALY":193.3708,"EPHEMERIS_TYPE":0,"NORAD_CAT_ID":66753,"ELEMENT_SET_NO":999,"REV_AT_EPOCH":3553,"BSTAR":0.00024564021,"MEAN_MOTION_DOT":0.00004036,"MEAN_MOTION_DDOT":0},{"OBJECT_NAME":"ICEYE-X61","OBJECT_ID":"2025-276CS","EPOCH":"2026-07-23T11:14:06.659232","CLASSIFICATION_TYPE":"U","MEAN_MOTION":15.18643479,"ECCENTRICITY":0.0002933,"INCLINATION":97.4183,"RA_OF_ASC_NODE":277.2816,"ARG_OF_PERICENTER":181.3523,"MEAN_ANOMALY":178.7704,"EPHEMERIS_TYPE":0,"NORAD_CAT_ID":66754,"ELEMENT_SET_NO":999,"REV_AT_EPOCH":3592,"BSTAR":0.00014162,"MEAN_MOTION_DOT":0.00002866,"MEAN_MOTION_DDOT":0},{"OBJECT_NAME":"ICEYE-X62","OBJECT_ID":"2025-276CT","EPOCH":"2026-07-23T15:21:59.931072","CLASSIFICATION_TYPE":"U","MEAN_MOTION":15.10212575,"ECCENTRICITY":0.0001467,"INCLINATION":97.4177,"RA_OF_ASC_NODE":275.7063,"ARG_OF_PERICENTER":194.1996,"MEAN_ANOMALY":165.9193,"EPHEMERIS_TYPE":0,"NORAD_CAT_ID":66755,"ELEMENT_SET_NO":999,"REV_AT_EPOCH":3583,"BSTAR":0.00032649,"MEAN_MOTION_DOT":0.00005275,"MEAN_MOTION_DDOT":0},{"OBJECT_NAME":"ICEYE-X63","OBJECT_ID":"2026-004K","EPOCH":"2026-07-23T10:53:07.209024","CLASSIFICATION_TYPE":"U","MEAN_MOTION":14.88360516,"ECCENTRICITY":0.0004858,"INCLINATION":97.802,"RA_OF_ASC_NODE":202.5294,"ARG_OF_PERICENTER":30.3016,"MEAN_ANOMALY":329.848,"EPHEMERIS_TYPE":0,"NORAD_CAT_ID":67372,"ELEMENT_SET_NO":999,"REV_AT_EPOCH":2869,"BSTAR":0.000095231511,"MEAN_MOTION_DOT":0.00000827,"MEAN_MOTION_DDOT":0},{"OBJECT_NAME":"ICEYE-X64","OBJECT_ID":"2026-004L","EPOCH":"2026-07-22T16:44:08.054880","CLASSIFICATION_TYPE":"U","MEAN_MOTION":14.87999271,"ECCENTRICITY":0.00067327,"INCLINATION":97.8032,"RA_OF_ASC_NODE":201.701,"ARG_OF_PERICENTER":33.5498,"MEAN_ANOMALY":326.6144,"EPHEMERIS_TYPE":0,"NORAD_CAT_ID":67373,"ELEMENT_SET_NO":999,"REV_AT_EPOCH":2857,"BSTAR":0.00010379219,"MEAN_MOTION_DOT":0.00000898,"MEAN_MOTION_DDOT":0},{"OBJECT_NAME":"ICEYE-X71","OBJECT_ID":"2026-067CG","EPOCH":"2026-07-23T20:00:01.999008","CLASSIFICATION_TYPE":"U","MEAN_MOTION":14.92595369,"ECCENTRICITY":0.0000751,"INCLINATION":97.7617,"RA_OF_ASC_NODE":162.5095,"ARG_OF_PERICENTER":275.9507,"MEAN_ANOMALY":152.2229,"EPHEMERIS_TYPE":0,"NORAD_CAT_ID":68494,"ELEMENT_SET_NO":999,"REV_AT_EPOCH":577,"BSTAR":0.0069659,"MEAN_MOTION_DOT":0.00072331,"MEAN_MOTION_DDOT":0},{"OBJECT_NAME":"ICEYE-X73","OBJECT_ID":"2026-067CJ","EPOCH":"2026-07-23T20:15:39.055392","CLASSIFICATION_TYPE":"U","MEAN_MOTION":14.92379964,"ECCENTRICITY":0.0002165,"INCLINATION":97.7627,"RA_OF_ASC_NODE":162.6147,"ARG_OF_PERICENTER":134.8118,"MEAN_ANOMALY":225.3277,"EPHEMERIS_TYPE":0,"NORAD_CAT_ID":68496,"ELEMENT_SET_NO":999,"REV_AT_EPOCH":1719,"BSTAR":0.00024461,"MEAN_MOTION_DOT":0.00002447,"MEAN_MOTION_DDOT":0},{"OBJECT_NAME":"ICEYE-X75","OBJECT_ID":"2026-067CK","EPOCH":"2026-07-23T20:23:37.135104","CLASSIFICATION_TYPE":"U","MEAN_MOTION":14.92188888,"ECCENTRICITY":0.0002144,"INCLINATION":97.7612,"RA_OF_ASC_NODE":162.5833,"ARG_OF_PERICENTER":130.7532,"MEAN_ANOMALY":229.3874,"EPHEMERIS_TYPE":0,"NORAD_CAT_ID":68497,"ELEMENT_SET_NO":999,"REV_AT_EPOCH":1719,"BSTAR":0.00010994,"MEAN_MOTION_DOT":0.00001064,"MEAN_MOTION_DDOT":0},{"OBJECT_NAME":"ICEYE-X74","OBJECT_ID":"2026-067CN","EPOCH":"2026-07-23T08:23:02.114592","CLASSIFICATION_TYPE":"U","MEAN_MOTION":14.91820341,"ECCENTRICITY":0.0000342,"INCLINATION":97.7638,"RA_OF_ASC_NODE":162.0455,"ARG_OF_PERICENTER":236.0047,"MEAN_ANOMALY":124.114,"EPHEMERIS_TYPE":0,"NORAD_CAT_ID":68500,"ELEMENT_SET_NO":999,"REV_AT_EPOCH":1711,"BSTAR":0.00021379,"MEAN_MOTION_DOT":0.00002102,"MEAN_MOTION_DDOT":0},{"OBJECT_NAME":"ICEYE-X76","OBJECT_ID":"2026-067CQ","EPOCH":"2026-07-23T19:33:37.964736","CLASSIFICATION_TYPE":"U","MEAN_MOTION":14.91762875,"ECCENTRICITY":0.0000639,"INCLINATION":97.7645,"RA_OF_ASC_NODE":162.5224,"ARG_OF_PERICENTER":206.2099,"MEAN_ANOMALY":153.9088,"EPHEMERIS_TYPE":0,"NORAD_CAT_ID":68502,"ELEMENT_SET_NO":999,"REV_AT_EPOCH":1718,"BSTAR":0.000090021,"MEAN_MOTION_DOT":0.00000851,"MEAN_MOTION_DDOT":0}]}
